DELTA 2 R/B(1)          
1 20453U 90008B   26019.69569724  .00054471  00000+0  78340-3 0  9992
2 20453  35.6055 134.7392 0101540 165.4275 194.9421 15.49067605918517
COSMOS 2058             
1 20465U 90010A   26020.24197563  .00005816  00000+0  34766-3 0  9992
2 20465  82.4670  95.1535 0010928 135.0092 225.2025 15.10849490934920
SL-14 R/B               
1 20466U 90010B   26020.25953060  .00000682  00000+0  79652-4 0  9996
2 20466  82.5046 312.8736 0021366  98.6620 261.7016 14.83514978921302
SL-14 R/B               
1 20511U 90018B   26020.09558812  .00000529  00000+0  63511-4 0  9990
2 20511  82.5207 268.5187 0014945 250.6170 109.3429 14.82090162915383
HST                     
1 20580U 90037B   26020.25343543  .00011715  00000+0  40065-3 0  9995
2 20580  28.4679  10.2230 0001632 293.2847  66.7576 15.28617704765891
SL-16 R/B               
1 20625U 90046B   26020.34392264 -.00000119  00000+0 -37040-4 0  9997
2 20625  70.9995  39.4471 0013771   7.4002 352.7321 14.15007830841551
COSMOS 2084             
1 20663U 90055A   26020.30053318  .00004578  00000+0  33027-3 0  9990
2 20663  62.7906 140.5764 0025143 180.6015 179.5060 15.05291322929033
SL-6 R/B(2)             
1 20666U 90055D   26020.28443443  .00002590  00000+0  20405-3 0  9990
2 20666  62.7823  58.4254 0017717 331.0624  28.9491 15.03289381930915
SL-8 R/B                
1 20775U 90078B   26020.23248168  .00026585  00000+0  80107-3 0  9993
2 20775  82.9060 294.8263 0368660 176.3589 184.0461 14.87262711802092
SL-8 R/B                
1 21088U 91006B   26020.27085409 -.00000038  00000+0 -53901-4 0  9994
2 21088  82.9409 206.0501 0022673 167.9532   5.0434 13.77491537757406
OKEAN-3                 
1 21397U 91039A   26020.26385924  .00004425  00000+0  31435-3 0  9996
2 21397  82.5149  23.7442 0015886 129.8915 230.3711 15.04378514857755
COSMOS 2151             
1 21422U 91042A   26020.31983843  .00003906  00000+0  31277-3 0  9996
2 21422  82.4989 130.3232 0011765 218.0393 142.0001 14.99875126855944
