CCSDS_OMM_VERS = 2.0
CREATION_DATE  = 
ORIGINATOR     = 

OBJECT_NAME    = DELTA 2 R/B(1)
OBJECT_ID      = 1990-008B
CENTER_NAME    = EARTH
REF_FRAME      = TEME
TIME_SYSTEM    = UTC
MEAN_ELEMENT_THEORY = SGP/SGP4

EPOCH          = 2026-01-19T16:41:48.241536
MEAN_MOTION    = 15.49067605
ECCENTRICITY   = .01015401
INCLINATION    = 35.6055
RA_OF_ASC_NODE = 134.7392
ARG_OF_PERICENTER = 165.4275
MEAN_ANOMALY   = 194.9421

EPHEMERIS_TYPE = 0
CLASSIFICATION_TYPE = U
NORAD_CAT_ID   = 20453
ELEMENT_SET_NO = 999
REV_AT_EPOCH   = 91851
BSTAR          = .78340333E-3
MEAN_MOTION_DOT = .54471E-3
MEAN_MOTION_DDOT = 0

CCSDS_OMM_VERS = 2.0
CREATION_DATE  = 
ORIGINATOR     = 

OBJECT_NAME    = COSMOS 2058
OBJECT_ID      = 1990-010A
CENTER_NAME    = EARTH
REF_FRAME      = TEME
TIME_SYSTEM    = UTC
MEAN_ELEMENT_THEORY = SGP/SGP4

EPOCH          = 2026-01-20T05:48:26.694432
MEAN_MOTION    = 15.10849490
ECCENTRICITY   = .00109282
INCLINATION    = 82.4670
RA_OF_ASC_NODE = 95.1535
ARG_OF_PERICENTER = 135.0092
MEAN_ANOMALY   = 225.2025

EPHEMERIS_TYPE = 0
CLASSIFICATION_TYPE = U
NORAD_CAT_ID   = 20465
ELEMENT_SET_NO = 999
REV_AT_EPOCH   = 93492
BSTAR          = .34765803E-3
MEAN_MOTION_DOT = .5816E-4
MEAN_MOTION_DDOT = 0

CCSDS_OMM_VERS = 2.0
CREATION_DATE  = 
ORIGINATOR     = 

OBJECT_NAME    = SL-14 R/B
OBJECT_ID      = 1990-010B
CENTER_NAME    = EARTH
REF_FRAME      = TEME
TIME_SYSTEM    = UTC
MEAN_ELEMENT_THEORY = SGP/SGP4

EPOCH          = 2026-01-20T06:13:43.443840
MEAN_MOTION    = 14.83514978
ECCENTRICITY   = .00213667
INCLINATION    = 82.5046
RA_OF_ASC_NODE = 312.8736
ARG_OF_PERICENTER = 98.6620
MEAN_ANOMALY   = 261.7016

EPHEMERIS_TYPE = 0
CLASSIFICATION_TYPE = U
NORAD_CAT_ID   = 20466
ELEMENT_SET_NO = 999
REV_AT_EPOCH   = 92130
BSTAR          = .79652347E-4
MEAN_MOTION_DOT = .682E-5
MEAN_MOTION_DDOT = 0

CCSDS_OMM_VERS = 2.0
CREATION_DATE  = 
ORIGINATOR     = 

OBJECT_NAME    = SL-14 R/B
OBJECT_ID      = 1990-018B
CENTER_NAME    = EARTH
REF_FRAME      = TEME
TIME_SYSTEM    = UTC
MEAN_ELEMENT_THEORY = SGP/SGP4

EPOCH          = 2026-01-20T02:17:38.813568
MEAN_MOTION    = 14.82090162
ECCENTRICITY   = .00149451
INCLINATION    = 82.5207
RA_OF_ASC_NODE = 268.5187
ARG_OF_PERICENTER = 250.6170
MEAN_ANOMALY   = 109.3429

EPHEMERIS_TYPE = 0
CLASSIFICATION_TYPE = U
NORAD_CAT_ID   = 20511
ELEMENT_SET_NO = 999
REV_AT_EPOCH   = 91538
BSTAR          = .63510581E-4
MEAN_MOTION_DOT = .529E-5
MEAN_MOTION_DDOT = 0

CCSDS_OMM_VERS = 2.0
CREATION_DATE  = 
ORIGINATOR     = 

OBJECT_NAME    = HST
OBJECT_ID      = 1990-037B
CENTER_NAME    = EARTH
REF_FRAME      = TEME
TIME_SYSTEM    = UTC
MEAN_ELEMENT_THEORY = SGP/SGP4

EPOCH          = 2026-01-20T06:04:56.821152
MEAN_MOTION    = 15.28617704
ECCENTRICITY   = .00016328
INCLINATION    = 28.4679
RA_OF_ASC_NODE = 10.2230
ARG_OF_PERICENTER = 293.2847
MEAN_ANOMALY   = 66.7576

EPHEMERIS_TYPE = 0
CLASSIFICATION_TYPE = U
NORAD_CAT_ID   = 20580
ELEMENT_SET_NO = 999
REV_AT_EPOCH   = 76589
BSTAR          = .40065138E-3
MEAN_MOTION_DOT = .11715E-3
MEAN_MOTION_DDOT = 0

CCSDS_OMM_VERS = 2.0
CREATION_DATE  = 
ORIGINATOR     = 

OBJECT_NAME    = SL-16 R/B
OBJECT_ID      = 1990-046B
CENTER_NAME    = EARTH
REF_FRAME      = TEME
TIME_SYSTEM    = UTC
MEAN_ELEMENT_THEORY = SGP/SGP4

EPOCH          = 2026-01-20T08:15:14.916096
MEAN_MOTION    = 14.15007830
ECCENTRICITY   = .0013771
INCLINATION    = 70.9995
RA_OF_ASC_NODE = 39.4471
ARG_OF_PERICENTER = 7.4002
MEAN_ANOMALY   = 352.7321

EPHEMERIS_TYPE = 0
CLASSIFICATION_TYPE = U
NORAD_CAT_ID   = 20625
ELEMENT_SET_NO = 999
REV_AT_EPOCH   = 84155
BSTAR          = -.37039907E-4
MEAN_MOTION_DOT = -.119E-5
MEAN_MOTION_DDOT = 0

CCSDS_OMM_VERS = 2.0
CREATION_DATE  = 
ORIGINATOR     = 

OBJECT_NAME    = COSMOS 2084
OBJECT_ID      = 1990-055A
CENTER_NAME    = EARTH
REF_FRAME      = TEME
TIME_SYSTEM    = UTC
MEAN_ELEMENT_THEORY = SGP/SGP4

EPOCH          = 2026-01-20T07:12:46.066752
MEAN_MOTION    = 15.05291322
ECCENTRICITY   = .00251434
INCLINATION    = 62.7906
RA_OF_ASC_NODE = 140.5764
ARG_OF_PERICENTER = 180.6015
MEAN_ANOMALY   = 179.5060

EPHEMERIS_TYPE = 0
CLASSIFICATION_TYPE = U
NORAD_CAT_ID   = 20663
ELEMENT_SET_NO = 999
REV_AT_EPOCH   = 92903
BSTAR          = .33027294E-3
MEAN_MOTION_DOT = .4578E-4
MEAN_MOTION_DDOT = 0

CCSDS_OMM_VERS = 2.0
CREATION_DATE  = 
ORIGINATOR     = 

OBJECT_NAME    = SL-6 R/B(2)
OBJECT_ID      = 1990-055D
CENTER_NAME    = EARTH
REF_FRAME      = TEME
TIME_SYSTEM    = UTC
MEAN_ELEMENT_THEORY = SGP/SGP4

EPOCH          = 2026-01-20T06:49:35.134752
MEAN_MOTION    = 15.03289381
ECCENTRICITY   = .00177175
INCLINATION    = 62.7823
RA_OF_ASC_NODE = 58.4254
ARG_OF_PERICENTER = 331.0624
MEAN_ANOMALY   = 28.9491

EPHEMERIS_TYPE = 0
CLASSIFICATION_TYPE = U
NORAD_CAT_ID   = 20666
ELEMENT_SET_NO = 999
REV_AT_EPOCH   = 93091
BSTAR          = .20405018E-3
MEAN_MOTION_DOT = .259E-4
MEAN_MOTION_DDOT = 0

CCSDS_OMM_VERS = 2.0
CREATION_DATE  = 
ORIGINATOR     = 

OBJECT_NAME    = SL-8 R/B
OBJECT_ID      = 1990-078B
CENTER_NAME    = EARTH
REF_FRAME      = TEME
TIME_SYSTEM    = UTC
MEAN_ELEMENT_THEORY = SGP/SGP4

EPOCH          = 2026-01-20T05:34:46.417152
MEAN_MOTION    = 14.87262711
ECCENTRICITY   = .03686607
INCLINATION    = 82.9060
RA_OF_ASC_NODE = 294.8263
ARG_OF_PERICENTER = 176.3589
MEAN_ANOMALY   = 184.0461

EPHEMERIS_TYPE = 0
CLASSIFICATION_TYPE = U
NORAD_CAT_ID   = 20775
ELEMENT_SET_NO = 999
REV_AT_EPOCH   = 80209
BSTAR          = .80106568E-3
MEAN_MOTION_DOT = .26585E-3
MEAN_MOTION_DDOT = 0

CCSDS_OMM_VERS = 2.0
CREATION_DATE  = 
ORIGINATOR     = 

OBJECT_NAME    = SL-8 R/B
OBJECT_ID      = 1991-006B
CENTER_NAME    = EARTH
REF_FRAME      = TEME
TIME_SYSTEM    = UTC
MEAN_ELEMENT_THEORY = SGP/SGP4

EPOCH          = 2026-01-20T06:30:01.793376
MEAN_MOTION    = 13.77491537
ECCENTRICITY   = .00226732
INCLINATION    = 82.9409
RA_OF_ASC_NODE = 206.0501
ARG_OF_PERICENTER = 167.9532
MEAN_ANOMALY   = 5.0434

EPHEMERIS_TYPE = 0
CLASSIFICATION_TYPE = U
NORAD_CAT_ID   = 21088
ELEMENT_SET_NO = 999
REV_AT_EPOCH   = 75740
BSTAR          = -.53900851E-4
MEAN_MOTION_DOT = -.38E-6
MEAN_MOTION_DDOT = 0

CCSDS_OMM_VERS = 2.0
CREATION_DATE  = 
ORIGINATOR     = 

OBJECT_NAME    = OKEAN-3
OBJECT_ID      = 1991-039A
CENTER_NAME    = EARTH
REF_FRAME      = TEME
TIME_SYSTEM    = UTC
MEAN_ELEMENT_THEORY = SGP/SGP4

EPOCH          = 2026-01-20T06:19:57.438336
MEAN_MOTION    = 15.04378514
ECCENTRICITY   = .0015886
INCLINATION    = 82.5149
RA_OF_ASC_NODE = 23.7442
ARG_OF_PERICENTER = 129.8915
MEAN_ANOMALY   = 230.3711

EPHEMERIS_TYPE = 0
CLASSIFICATION_TYPE = U
NORAD_CAT_ID   = 21397
ELEMENT_SET_NO = 999
REV_AT_EPOCH   = 85775
BSTAR          = .31435091E-3
MEAN_MOTION_DOT = .4425E-4
MEAN_MOTION_DDOT = 0

CCSDS_OMM_VERS = 2.0
CREATION_DATE  = 
ORIGINATOR     = 

OBJECT_NAME    = COSMOS 2151
OBJECT_ID      = 1991-042A
CENTER_NAME    = EARTH
REF_FRAME      = TEME
TIME_SYSTEM    = UTC
MEAN_ELEMENT_THEORY = SGP/SGP4

EPOCH          = 2026-01-20T07:40:34.040352
MEAN_MOTION    = 14.99875126
ECCENTRICITY   = .00117654
INCLINATION    = 82.4989
RA_OF_ASC_NODE = 130.3232
ARG_OF_PERICENTER = 218.0393
MEAN_ANOMALY   = 142.0001

EPHEMERIS_TYPE = 0
CLASSIFICATION_TYPE = U
NORAD_CAT_ID   = 21422
ELEMENT_SET_NO = 999
REV_AT_EPOCH   = 85594
BSTAR          = .31276991E-3
MEAN_MOTION_DOT = .3906E-4
MEAN_MOTION_DDOT = 0

